HAWK-5A                 
1 52757U 22057AB  26176.17016382  .00022308  00000+0  37649-3 0  9998
2 52757  97.6610 335.5349 0004966  53.0451 307.1254 15.51651830227583
HAWK-6B                 
1 55324U 23011A   26175.06846159  .00003972  00000+0  17355-3 0  9990
2 55324  40.4998 311.9348 0001359  64.3038 295.7912 15.22986857188898
HAWK-6C                 
1 55326U 23011C   26175.06781849  .00003719  00000+0  16307-3 0  9991
2 55326  40.4983 308.7764 0002157  47.0501 313.0489 15.22981146188901
HAWK-6A                 
1 55327U 23011D   26175.06786258  .00003889  00000+0  17011-3 0  9992
2 55327  40.4996 310.4017 0001828  39.6267 320.4676 15.22984519188904
HAWK-7A                 
1 56191U 23054P   26176.16849487  .00006335  00000+0  23857-3 0  9999
2 56191  97.2700  63.3028 0003716  39.3804 320.7705 15.27436048178241
HAWK-7B                 
1 56193U 23054R   26176.16842091  .00006208  00000+0  23386-3 0  9991
2 56193  97.2727  61.5697 0003296  54.3900 305.7646 15.27434160178241
HAWK-7C                 
1 56200U 23054Y   26176.16830414  .00006135  00000+0  23115-3 0  9995
2 56200  97.2703  62.3357 0003140  45.0374 315.1120 15.27434624178243
