OBJECT_NAME,OBJECT_ID,EPOCH,MEAN_MOTION,ECCENTRICITY,INCLINATION,RA_OF_ASC_NODE,ARG_OF_PERICENTER,MEAN_ANOMALY,EPHEMERIS_TYPE,CLASSIFICATION_TYPE,NORAD_CAT_ID,ELEMENT_SET_NO,REV_AT_EPOCH,BSTAR,MEAN_MOTION_DOT,MEAN_MOTION_DDOT
HAWK-5A,2022-057AB,2026-06-25T04:05:02.154048,15.51651830,.0004966,97.6610,335.5349,53.0451,307.1254,0,U,52757,999,22758,.37649E-3,.22308E-3,0
HAWK-6B,2023-011A,2026-06-24T01:38:35.081376,15.22986857,.00013592,40.4998,311.9348,64.3038,295.7912,0,U,55324,999,18889,.17354595E-3,.3972E-4,0
HAWK-6C,2023-011C,2026-06-24T01:37:39.517536,15.22981146,.00021576,40.4983,308.7764,47.0501,313.0489,0,U,55326,999,18890,.16307309E-3,.3719E-4,0
HAWK-6A,2023-011D,2026-06-24T01:37:43.326912,15.22984519,.00018289,40.4996,310.4017,39.6267,320.4676,0,U,55327,999,18890,.17010993E-3,.3889E-4,0
HAWK-7A,2023-054P,2026-06-25T04:02:37.956768,15.27436048,.0003716,97.2700,63.3028,39.3804,320.7705,0,U,56191,999,17824,.23857E-3,.6335E-4,0
HAWK-7B,2023-054R,2026-06-25T04:02:31.566624,15.27434160,.0003296,97.2727,61.5697,54.3900,305.7646,0,U,56193,999,17824,.23386E-3,.6208E-4,0
HAWK-7C,2023-054Y,2026-06-25T04:02:21.477696,15.27434624,.000314,97.2703,62.3357,45.0374,315.1120,0,U,56200,999,17824,.23115E-3,.6135E-4,0
